OBJECT_NAME,OBJECT_ID,EPOCH,MEAN_MOTION,ECCENTRICITY,INCLINATION,RA_OF_ASC_NODE,ARG_OF_PERICENTER,MEAN_ANOMALY,EPHEMERIS_TYPE,CLASSIFICATION_TYPE,NORAD_CAT_ID,ELEMENT_SET_NO,REV_AT_EPOCH,BSTAR,MEAN_MOTION_DOT,MEAN_MOTION_DDOT
GEOSCAN 3 (RS92S3),2025-155T,2026-06-13T14:35:59.067456,15.35285159,.00062456,97.4530,134.4437,171.7257,188.4090,0,U,64893,999,8030,.53343059E-3,.18228E-3,0
INNOSAT 3 (RS92S0),2025-155U,2026-06-13T14:49:40.844640,15.43595412,.00059208,97.4478,136.0287,160.0063,200.1418,0,U,64894,999,8041,.79172966E-3,.35644E-3,0
KNACKSAT-2,1998-067XZ,2026-06-13T15:13:54.293952,15.59671586,.00095477,51.6302,312.3427,199.6218,160.4409,0,U,67683,999,1972,.57979332E-3,.47047E-3,0
