KNACKSAT-2              
1 67683U 98067XZ  26164.63465618  .00047047  00000+0  57979-3 0  9999
2 67683  51.6302 312.3427 0009547 199.6218 160.4409 15.59671586 19728
GEOSCAN 3 (RS92S3)      
1 64893U 25155T   26164.60832254  .00018228  00000+0  53343-3 0  9998
2 64893  97.4530 134.4437 0006245 171.7257 188.4090 15.35285159 80308
INNOSAT 3 (RS92S0)      
1 64894U 25155U   26164.61783385  .00035644  00000+0  79173-3 0  9990
2 64894  97.4478 136.0287 0005920 160.0063 200.1418 15.43595412 80419
